2 58110  53.0530 199.1574 0001370  86.8123 273.3028 15.18706660 14525
STARLINK-30595          
1 58111U 23161Q   24015.81074005 -.00002621  00000+0 -10958-3 0  9994
2 58111  53.0527 199.1277 0001351 120.9807 239.1320 15.18734525 14391
STARLINK-30593          
1 58112U 23161R   24015.81036419 -.00001036  00000+0 -34184-4 0  9999
2 58112  53.0521 199.1269 0001065  87.9642 272.1474 15.18718491 14524
STARLINK-30353          
1 58113U 23161S   24015.73987519 -.00002180  00000+0 -88663-4 0  9999
2 58113  53.0536 199.3985 0000922 101.6800 258.4298 15.18713923 14514
STARLINK-30572          
1 58114U 23161T   24016.46339650 -.00004814  00000+0 -21427-3 0  9998
2 58114  53.0539 196.0873 0001206  60.1695 299.9419 15.18691404 14496
STARLINK-30580          
1 58115U 23161U   24016.52450384  .00000657  00000+0  46437-4 0  9992
2 58115  53.0549 195.7553 0001334  73.7685 286.3456 15.18698798 14506
STARLINK-30493          
1 58116U 23161V   24016.52411939  .00000396  00000+0  33962-4 0  9995
2 58116  53.0558 195.7504 0001136  92.7753 267.3372 15.18715819 14500
STARLINK-30601          
1 58117U 23161W   24016.51943772 -.00007003  00000+0 -31853-3 0  9990
2 58117  53.0557 195.7226 0001291  89.3351 270.7791 15.18704749 14502
STARLINK-30795          
1 58118U 23162A   24016.48555308  .00032126  00000+0  22618-2 0  9992
2 58118  43.0009  68.9872 0000789 305.2365  54.8404 15.04489426 14394
STARLINK-30765          
1 58119U 23162B   24016.16169305  .00010168  00000+0  76656-3 0  9990
2 58119  43.0003  70.8458 0000969 245.3291 114.7450 15.02542326 14432
STARLINK-30768          
1 58120U 23162C   24016.48226373  .00034686  00000+0  24398-2 0  9992
2 58120  43.0004  68.9601 0000812 244.8777 115.1982 15.04492564 14393
STARLINK-30799          
1 58121U 23162D   24016.16058315  .00012761  00000+0  95793-3 0  9995
2 58121  43.0012  70.8356 0000515 256.5421 103.5364 15.02538972 13215
STARLINK-30759          
1 58122U 23162E   24016.01125427 -.00001283  00000+0 -75618-4 0  9993
2 58122  42.9998  71.4457 0001013 267.1269  92.9458 15.04487306 14401
STARLINK-30781          
1 58123U 23162F   24016.07531927  .00001391  00000+0  11233-3 0  9996
2 58123  43.0002  71.0664 0001060 246.5486 113.5246 15.04484360 14424
STARLINK-30754          
1 58124U 23162G   24016.15725509  .00012461  00000+0  93584-3 0  9996
2 58124  43.0008  70.8105 0001076 269.5271  90.5448 15.02536851 14342
STARLINK-30766          
1 58125U 23162H   24016.47140956  .00029315  00000+0  20663-2 0  9992
2 58125  43.0010  68.8794 0000868 267.4741  92.6003 15.04483487 14487
STARLINK-30767          
1 58126U 23162J   24016.19848375  .00011449  00000+0  81770-3 0  9998
2 58126  42.9995  70.2698 0000675 285.7168  74.3601 15.04493213 14434
STARLINK-30790          
1 58127U 23162K   24016.45993447 -.00001963  00000+0 -12349-3 0  9997
2 58127  42.9999  68.7924 0002065 328.0453  32.0264 15.04449184 14485
STARLINK-30787          
1 58128U 23162L   24016.19309266  .00008103  00000+0  58336-3 0  9996
2 58128  42.9998  70.2293 0001192 277.6219  82.4488 15.04484851 14444
STARLINK-30756          
1 58129U 23162M   24016.22040483  .00010043  00000+0  75766-3 0  9996
2 58129  43.0013  70.4242 0001330 289.5611  70.5087 15.02525751 14438
STARLINK-30783          
1 58130U 23162N   24016.18943231  .00001276  00000+0  10425-3 0  9995
2 58130  42.9997  70.2003 0001246 289.6886  70.3823 15.04476552 14435
STARLINK-30757          
1 58131U 23162P   24016.45108184  .00002514  00000+0  19119-3 0  9991
2 58131  43.0000  68.7248 0001002 256.8918 103.1813 15.04484119 14430
STARLINK-30770          
1 58132U 23162Q   24016.48298564  .00031171  00000+0  23119-2 0  9992
2 58132  43.0010  68.9527 0001077 263.1167  96.9553 15.02542405 14489
STARLINK-30758          
1 58133U 23162R   24016.25001157 -.00018555  00000+0 -13612-2 0  9998
2 58133  43.0002  69.7867 0000800 250.8705 113.9062 15.02561944 14463
STARLINK-30761          
1 58134U 23162S   24016.14726614  .00000080  00000+0  21020-4 0  9995
2 58134  43.0007  70.7327 0000884 263.1064  96.9678 15.02532354 14432
STARLINK-30772          
1 58135U 23162T   24016.25001157  .00018128  00000+0  13537-2 0  9990
2 58135  43.0008  70.6081 0001115 296.7923  79.2511 15.02531836 14359
STARLINK-30776          
1 58136U 23162U   24015.91667824  .00016210  00000+0  12127-2 0  9996
2 58136  43.0010  72.3750 0001491 247.9371 141.1240 15.02523260  5706
STARLINK-30782          
1 58137U 23162V   24016.25001157  .00020160  00000+0  15048-2 0  9990
2 58137  43.0008  70.5224 0000744 234.4768 177.6755 15.02495592 14454
STARLINK-30769          
1 58138U 23162W   24015.91667824  .00020677  00000+0  15424-2 0  9993
2 58138  43.0007  72.2443 0001041 248.9001 194.2927 15.02506545  5791
STARLINK-30775          
1 58139U 23162X   24015.91667824  .00020137  00000+0  15020-2 0  9997
2 58139  43.0012  72.2893 0001564 254.1202 171.0031 15.02522999  5856
STARLINK-30780          
1 58140U 23162Y   24015.91667824  .00020007  00000+0  14924-2 0  9997
2 58140  43.0009  72.2035 0001576 268.9405 192.2618 15.02522546  5790
STARLINK-30802          
1 58150U 23166A   24016.04702643 -.00010824  00000+0 -50089-3 0  9997
2 58150  53.0516 252.3982 0001045  92.7496 267.3617 15.18706103 13322
STARLINK-30834          
1 58151U 23166B   24016.04196398  .00012923  00000+0  62869-3 0  9991
2 58151  53.0500 252.3660 0001403  97.5623 262.5531 15.18736554 13316
STARLINK-30833          
1 58152U 23166C   24016.04667270  .00058828  00000+0  27894-2 0  9996
2 58152  53.0504 252.3968 0001455  60.7158 299.3981 15.18750080 13311
STARLINK-30831          
1 58153U 23166D   24015.83440095  .00000747  00000+0  50693-4 0  9999
2 58153  53.0501 253.2030 0001756 145.9301 214.1806 15.18719046 13283
STARLINK-30797          
1 58154U 23166E   24016.10738584  .00018395  00000+0  88776-3 0  9994
2 58154  53.0498 252.0614 0001624 141.0721 219.0391 15.18737853 13101
STARLINK-30804          
1 58155U 23166F   24015.97073100  .00000735  00000+0  50172-4 0  9994
2 58155  53.0500 252.6286 0001629 135.7271 224.3854 15.18676415 13314
STARLINK-30784          
1 58156U 23166G   24015.83401544 -.00000231  00000+0  41532-5 0  9990
2 58156  53.0497 253.2053 0001205 108.0657 252.0469 15.18716834 13130
STARLINK-30803          
1 58157U 23166H   24016.09256893  .00025552  00000+0  12258-2 0  9997
2 58157  53.0505 251.9688 0001367 102.6073 257.5075 15.18746712 13109
STARLINK-30829          
1 58158U 23166J   24016.08749489  .00011695  00000+0  57049-3 0  9996
2 58158  53.0510 251.9370 0001322 132.1129 227.9978 15.18736718 13338
STARLINK-30788          
1 58159U 23166K   24015.82387566  .00001233  00000+0  73778-4 0  9997
2 58159  53.0505 253.1367 0001488 130.1697 229.9428 15.18724449 13132
STARLINK-30779          
1 58160U 23166L   24016.08242849  .00009657  00000+0  47390-3 0  9990
2 58160  53.0525 251.9044 0001211 120.4439 239.6675 15.18731197 13325
STARLINK-30773          
1 58161U 23166M   24016.08204132  .00007626  00000+0  37747-3 0  9993
2 58161  53.0527 251.9002 0000917  90.1865 269.9235 15.18733276 13340
STARLINK-30816          
1 58162U 23166N   24015.94573918  .00011650  00000+0  56850-3 0  9997
2 58162  53.0534 252.4736 0001634 141.6025 218.5086 15.18726395 13311
STARLINK-30763          
1 58163U 23166P   24015.83910559  .00015751  00000+0  76282-3 0  9999
2 58163  53.0545 250.3328 0001515  85.6380 274.4788 15.18728625 13326
STARLINK-30815          
1 58164U 23166Q   24015.87955249  .00009085  00000+0  44687-3 0  9996
2 58164  53.0526 252.7672 0001100  95.3403 264.7716 15.18723300 13292
STARLINK-30814          
1 58165U 23166R   24016.45701048  .00000120  00000+0  20832-4 0  9996
2 58165  53.0525 249.9703 0001255 114.0324 246.0802 15.18721466 13387
STARLINK-30789          
1 58166U 23166S   24015.87448179  .00020341  00000+0  98000-3 0  9993
2 58166  53.0525 252.7444 0001293  96.1363 263.9779 15.18732492 13299
STARLINK-30811          
1 58167U 23166T   24016.46170859  .00041648  00000+0  19853-2 0  9998
2 58167  53.0528 250.0016 0001298 112.1221 247.9911 15.18725473 13220
STARLINK-30812          
1 58168U 23166U   24016.46207313  .00010035  00000+0  49207-3 0  9998
2 58168  53.0529 250.0038 0001412 113.6044 246.5099 15.18714866 13229
STARLINK-30771          
1 58169U 23166V   24015.86434200  .00006225  00000+0  31118-3 0  9997
2 58169  53.0527 252.6741 0001443 113.3987 246.7160 15.18713649 13290
STARLINK-30764          
1 58170U 23166W   24015.85965983  .00000432  00000+0  35689-4 0  9997
2 58170  53.0524 252.6472 0001495  93.5542 266.5624 15.18719641 13296
STARLINK-30752          
1 58171U 23166X   24016.05199087  .00002734  00000+0  14502-3 0  9992
2 58171  53.0533 251.7118 0001409  99.7325 260.3828 15.18757944 13337
STARLINK-30753          
1 58175U 23167A   24016.22621212  .00015012  00000+0  77846-3 0  9999
2 58175  42.9987  84.6222 0001273 289.9743  70.0967 15.15968651 13039
STARLINK-30824          
1 58176U 23167B   24016.22394971  .00013199  00000+0  68639-3 0  9993
2 58176  42.9984  84.6027 0000914 289.8924  70.1825 15.15950706 13037
STARLINK-30791          
1 58177U 23167C   24016.50104224  .00033012  00000+0  16960-2 0  9990
2 58177  42.9995  82.3778 0000717 314.0314  46.0474 15.15916087 13073
STARLINK-30810          
1 58178U 23167D   24016.48067357  .00066864  00000+0  34020-2 0  9991
2 58178  42.9991  83.0908 0000889 313.3200  46.7573 15.15966566 13073
STARLINK-30819          
1 58179U 23167E   24016.08306537  .00039022  00000+0  19989-2 0  9997
2 58179  42.9986  85.2653 0001239 304.0092  56.0637 15.15951383 13060
STARLINK-30806          
1 58180U 23167F   24016.07850888  .00046803  00000+0  23930-2 0  9997
2 58180  42.9985  85.2325 0000707 201.1203 158.9615 15.15944637 13014
STARLINK-30821          
1 58181U 23167G   24016.23518998  .00013786  00000+0  71616-3 0  9998
2 58181  42.9995  83.8227 0000869 294.0966  65.9790 15.15959751 13033
